    PK21A050  2026 03 10.6716  2.621042  0.139922   61.3864  328.8228   18.1856  20240419  15.0  4.0  P/2021 A5 (PANSTARRS)                                    MPEC 2021-BE3
    CK21A060  2021 05  2.8964  7.924465  0.999112  351.6108  164.0587   75.5859  20240419   7.0  4.0  C/2021 A6 (PANSTARRS)                                    MPEC 2023-O39
    CK21A070  2021 07 15.1319  1.965104  0.998940  355.9857  154.4664   78.1725  20240419  10.0  4.0  C/2021 A7 (NEOWISE)                                      MPEC 2022-M88
    CK21A090  2023 12  2.2552  7.760177  1.001072  211.4934  314.8332  158.0128  20240419   6.0  4.0  C/2021 A9 (PANSTARRS)                                    MPEC 2024-GJ3
    CK21A100  2021 03 15.0216  1.263466  0.985877   82.5140  188.7527  151.9552  20240419  19.0  4.0  C/2021 A10 (NEOWISE)                                     MPEC 2021-N06
    CK21B020  2021 05  4.6079  2.511863  0.993416  335.0149  120.4929   38.0823  20240419  14.0  4.0  C/2021 B2 (PANSTARRS)                                    MPEC 2022-L66
    CK21B030  2021 03 10.0371  2.162872  0.936895  293.5397   67.2738  119.4747  20240419  13.5  4.0  C/2021 B3 (NEOWISE)                                      MPEC 2021-N06
    CK21C010  2020 12  6.5676  3.474361  0.998945  336.1523  186.8772  143.0431  20240419  11.5  4.0  C/2021 C1 (Rankin)                                       MPEC 2023-KD6
    PK21C020  2021 02 23.7097  4.885169  0.487793   78.6969   66.4563   21.9403  20240419  12.0  4.0  P/2021 C2 (PANSTARRS)                                    MPEC 2021-U31
    CK21C030  2021 02 11.7597  2.273362  0.962752  357.0206  181.9063  122.1740  20240419  14.0  4.0  C/2021 C3 (Catalina)                                     MPEC 2021-N06
    CK21C040  2021 01 16.7737  4.497687  0.999605  320.1245  194.2665  132.8469  20240419   9.0  4.0  C/2021 C4 (ATLAS)                                        MPEC 2022-M88
    CK21C050  2023 02 11.0114  3.241810  0.998226  270.9173  323.6740   50.7894  20240419   9.0  4.0  C/2021 C5 (PANSTARRS)                                    MPEC 2023-R20
    CK21C060  2021 11 12.4808  3.278718  0.999199  203.8213  332.3463  164.6042  20240419  12.0  4.0  C/2021 C6 (Lemmon)                                       MPEC 2022-YB4
    CK21D010  2021 02 27.7314  0.904318  0.991092   72.3199  311.2441   31.4033  20240419  13.0  4.0  C/2021 D1 (SWAN)                                         MPEC 2022-F14
    CK21D020  2022 02  3.9228  2.946687  1.001586  125.0325  305.6600   83.7940  20240419   9.0  4.0  C/2021 D2 (ZTF)                                          MPEC 2023-J29
    AK21E020  2020 12  9.9761  2.282867  0.989280  342.3084  190.8003  167.4895  20240419  15.0  2.0  A/2021 E2                                                MPEC 2022-UY9
    CK21E030  2022 06 11.7747  1.777126  1.000528  228.8328  104.4828  112.5330  20240419   8.5  4.0  C/2021 E3 (ZTF)                                          MPEC 2024-GJ3
    AK21E040  2022 04 25.0193  4.677072  0.991216   48.2666  171.1634  116.3633  20240419  13.5 22.0  A/2021 E4                                                MPEC 2023-SQ0
    CK21F010  2022 04  6.7827  0.997385  0.995888  146.8797  203.4778  107.3160  20240419  13.5  4.0  C/2021 F1 (Lemmon-PANSTARRS)                             MPEC 2022-QD9
    CK21G010  2021 07 21.3937  3.424768  0.952767  107.4415  270.6998  131.5490  20240419  14.0  4.0  C/2021 G1 (Leonard)                                      MPEC 2021-J72
    CK21G020  2024 09  9.2937  4.982321  0.999987  343.2888  221.0942   48.4745  20240419   5.5  4.0  C/2021 G2 (ATLAS)                                        MPEC 2024-GJ3
    CK21G030  2021 10 17.9162  5.180101  0.999581   10.5814  147.3837  102.8695  20240419  10.5  4.0  C/2021 G3 (PANSTARRS)                                    MPEC 2022-X67
    PK21H00S  2021 08  5.8303  0.798812  0.809551   46.1395  262.3655   12.1565  20240419  22.0  4.0  P/2021 HS (PANSTARRS)                                    MPEC 2021-Y10
    CK21J010  2021 02 19.3731  1.738629  0.933912  147.2806   88.4079   92.7141  20240419  15.5  4.0  C/2021 J1 (Maury-Attard)                                 MPEC 2022-C56
    CK21J020  2021 09 21.7142  4.702545  0.959198  171.9569   23.3308  156.2126  20240419  12.0  4.0  C/2021 J2 (PANSTARRS)                                    MPEC 2023-XP6
    PK21J030  2019 07  2.1067  4.911102  0.449011  125.8479  111.1018   14.5242  20240419   7.0  4.0  P/2021 J3 (ATLAS)                                        MPEC 2024-F34
    CK21K010  2021 05  3.6825  2.500401  0.802254  184.2671  140.9149   16.2737  20240419  11.0  4.0  C/2021 K1 (ATLAS)                                        MPEC 2022-O08
    CK21K020  2021 09  9.6709  5.468528  1.000914  343.3421  282.3183  100.8622  20240419   8.0  4.0  C/2021 K2 (MASTER)                                       MPEC 2022-O01
    CK21K030  2022 02  3.9425  5.231630  1.004464  182.0525  114.5809  134.7774  20240419  10.0  4.0  C/2021 K3 (Catalina)                                     MPEC 2022-L66
    PK21L020  2021 07 23.7929  1.939971  0.520817   51.4955  266.6545   21.0652  20240419  17.0  4.0  P/2021 L2 (Leonard)                                      MPEC 2021-W31
    CK21L030  2022 02 14.6375  8.458624  1.004423   91.6309  344.9953   78.5648  20240419   6.0  4.0  C/2021 L3 (Borisov)                                      MPEC 2024-GJ3
    PK21N010  2026 07 27.8098  0.965130  0.675991   21.2387  301.1501   11.4898  20240419  19.0  4.0  P/2021 N1 (ZTF)                                          MPEC 2022-TA0
    PK21N020  2021 11 14.2626  3.800745  0.452567  177.5444  221.7317   13.0612  20240419   9.5  4.0  P/2021 N2 (Fuls)                                         MPEC 2024-GJ3
    CK21N030  2020 08 18.3640  5.716897  0.960835  304.7161  337.5016   26.7484  20240419   8.5  4.0  C/2021 N3 (PANSTARRS)                                    MPEC 2022-YB4
    CK21O010  2021 08 14.2717  0.783885  0.999720   74.3917   41.5935   27.5946  20240419  10.5  4.0  C/2021 O1 (Nishimura)                                    MPEC 2022-A21
    CK21O030  2022 04 21.1089  0.286113  1.000044  299.9578  188.9612   56.7998  20240419  10.5  4.0  C/2021 O3 (PANSTARRS)                                    MPEC 2022-L66
    CK21P010  2022 06  2.5899  4.376495  0.998468   40.4982  359.6872   51.6344  20240419  11.0  4.0  C/2021 P1 (PANSTARRS)                                    MPEC 2024-F34
    CK21P020  2023 01 22.9787  5.069359  0.998967   76.7184   32.0827  150.0628  20240419   9.0  4.0  C/2021 P2 (PANSTARRS)                                    MPEC 2023-R20
    PK21P030  2021 05 29.6230  2.917908  0.338705  334.0810  358.2442   27.1614  20240419  14.0  4.0  P/2021 P3 (PANSTARRS)                                    MPEC 2024-GJ3
    CK21P040  2022 07 30.3377  1.079578  0.996371  175.7956  348.0669   56.3252  20240419   9.5  4.0  C/2021 P4 (ATLAS)                                        MPEC 2023-A50
    PK21P20E  2021 06  6.4939  1.236178  0.669994  210.4684   99.6267   20.0018  20240419  17.0  4.0  P/2021 PE20 (ATLAS)                                      MPEC 2023-E68
    CK21Q030  2022 01 26.3098  5.205737  0.931168  114.1175  307.9150   77.7396  20240419   8.0  4.0  C/2021 Q3 (ATLAS)                                        MPEC 2023-FK0
    CK21Q040  2023 06 11.3947  7.565281  1.002904  147.0650  183.3282   71.4851  20240419   6.0  4.0  C/2021 Q4 (Fuls)                                         MPEC 2024-BE0
    PK21Q050  2021 08 30.8920  1.233686  0.624664  180.9326  239.7573   10.7396  20240419  15.0  4.0  P/2021 Q5 (ATLAS)                                        MPEC 2022-C56
    CK21Q060  2024 03 25.0726  8.707846  1.001277  141.0251  133.5379  161.8462  20240419   6.0  4.0  C/2021 Q6 (PANSTARRS)                                    MPEC 2023-XP6
    CK21Q45M  2022 08 13.6336  2.774725  0.992860   72.8558  354.5963   22.8159  20240419  11.0  4.0  C/2021 QM45 (PANSTARRS)                                  MPEC 2023-FK0
    PK21R010  2021 12 14.0091  4.885457  0.411299  220.2423  143.2454    5.5215  20240419  11.0  4.0  P/2021 R1 (PANSTARRS)                                    MPEC 2022-X67
    CK21R020  2021 12 27.7271  7.315810  0.998187   32.5017   16.3071  134.4835  20240419   7.5  4.0  C/2021 R2 (PANSTARRS)                                    MPEC 2022-X67
    PK21R030  2021 05 25.3754  2.522729  0.331024    2.6981  304.1945   19.9326  20240419  16.0  4.0  P/2021 R3 (PANSTARRS)                                    MPEC 2021-W31
    PK21R040  2021 10 14.0101  2.329836  0.585821   56.7142  321.2955   21.0258  20240419  16.0  4.0  P/2021 R4 (Wierzchos)                                    MPEC 2021-W31
    PK21R050  2022 01 12.7126  3.325903  0.306487  167.5356  219.9541    7.8545  20240419  12.0  4.0  P/2021 R5 (Rankin)                                       MPEC 2024-F34
    PK21R060  2021 11  1.1973  2.555516  0.593394  220.8159  176.1593   34.9157  20240419  14.5  4.0  P/2021 R6 (Groeller)                                     MPEC 2021-W31
    CK21R070  2021 04 16.6058  5.651708  0.993499  140.3114  170.1686  158.8635  20240419  10.5  4.0  C/2021 R7 (PANSTARRS)                                    MPEC 2022-X67
    PK21R080  2021 10  7.3407  2.134288  0.293052  190.8329  167.0746    2.2032  20240419  18.5  4.0  P/2021 R8 (Sheppard)                                     MPEC 2021-Y10
    CK21S010  2022 03  1.5095  6.120785  1.002560  148.2351  299.8708   52.0539  20240419   7.0  4.0  C/2021 S1 (ATLAS)                                        MPEC 2023-J29
    CK21S030  2024 02 14.7106  1.320212  1.000275    6.8542  215.6212   58.5330  20240419   5.5  4.0  C/2021 S3 (PANSTARRS)                                    MPEC 2024-GJ3
    CK21S040  2024 01  2.9408  6.689379  0.958845   72.9260    5.4824   17.4783  20240419   6.5  4.0  C/2021 S4 (Tsuchinshan)                                  MPEC 2024-GJ3
